#dP2021  9 21  0  0  0.00000000      96 __u+U ITR00 FIT  IAC
## 2176 172800.00000000   900.00000000 59478 0.0000000000000
+  126   C01C02C03C04C05C06C07C08C09C10C11C12C13C14C16C19C20
+        C21C22C23C24C25C26C27C28C29C30C32C33C34C35C36C37C38
+        C39C40C41C42C43C44C45C46C60E01E02E03E04E05E07E08E09
+        E11E12E13E14E15E18E19E21E24E25E26E27E30E31E33E36G01
+        G02G03G04G05G06G07G08G09G10G12G13G14G15G16G17G18G19
+        G20G21G22G23G24G25G26G27G28G29G30G31G32J01J02J03J07
+        R01R02R03R04R05R06R07R08R09R10R11R12R13R14R15R16R17
+        R18R19R20R21R22R23R24  0  0  0  0  0  0  0  0  0  0
++        13 12 12 12 12 10  0  9  9  9  8  8  8  9 10  7  7
++         7  7  7  7  7  7  7  7  7  7  7  7  7  7  7  7  8
++         8  8  7  7  7  7  8  8 13  5  4  4  4  4  4  4  4
++         4  4  4  4  4  4  4  5  4  5  5  4  4  5  6  4  4
++         4  3  4  4  3  4  4  4  4  3  4  4  4  4  4  4  4
++         4  4  4  4  4  3  3  4  4  4  4  3  4  9  8  9 14
++         7  6  6  6  6 13  6  6  6 13  7  6  7  6  6  7  6
++         6  7  7  5  7 13  6  0  0  0  0  0  0  0  0  0  0
%c M  cc GPS ccc cccc cccc cccc cccc ccccc ccccc ccccc ccccc
%c cc cc ccc ccc cccc cccc cccc cccc ccccc ccccc ccccc ccccc
%f  0.0000000  0.000000000  0.00000000000  0.000000000000000
%f  0.0000000  0.000000000  0.00000000000  0.000000000000000
%i    0    0    0    0      0      0      0      0         0
%i    0    0    0    0      0      0      0      0         0
/* INFORMATION & ANALYSIS CENTER (IAC)            RAPID DATA
/* S/V CLOCKS ARE ALIGNED TO GNSS TIME                      
/* G:C1WC2W R:C1PC2P E:C1XC5X C:C2IC6I J:C1CC2S             
/* PCV:IGS14_2163 OL/AL:FES2004  NONE     YN ORB:CoN CLK:CoN
*  2021 09 21 22 45  0.00000000
PC01 -34309.230669  24494.077248    205.115516    -48.535905
PC02   4362.044825  41914.579115   -318.723773    315.027213
PC03 -14786.703029  39448.158770    544.686564   -142.189814
PC04 -39560.969531  14518.550789    726.329173    244.783908
PC05  21854.382421  36038.599864   -643.888783    241.471018
PC06  -7714.762277  23411.257912 -34219.490190    225.781621
PC07      0.000000      0.000000      0.000000 999999.999999
PC08  -1124.135920  37682.580505  19024.086096   -938.303694
PC09   2713.233803  25715.504550 -32900.676189   -124.614099
PC10 -10704.885624  36153.195822  18638.265332      1.610991
PC11 -24992.051649 -11774.467645  -3676.305163    588.398181
PC12 -11458.531846 -17149.162676 -18747.573624    753.328722
PC13   4054.655268  40365.786312  12099.498188    417.009635
PC14 -16781.658866  -5241.400248  21673.310229    631.386522
PC16 -10794.453566  21793.330333 -34317.399567   -798.130965
PC19  21962.892087  -4013.729487 -16734.516026    959.007076
PC20  10452.380629  11908.277514 -22965.289531   -799.935081
PC21   8051.701206 -21596.591833  15754.493579   -932.203545
PC22  21217.842399 -18138.486774   -597.219481   -952.938236
PC23 -11827.946792  15169.371748 -20204.839313   -963.516648
PC24 -11653.274266 -23384.279982  -9767.693085   -967.100842
PC25 -16908.246391  -4602.591130 -21714.573247   -851.364863
PC26  -1206.878725 -27102.431536   6456.308550    846.758977
PC27   1114.581588  16728.225386  22288.143722    601.105591
PC28 -18206.340165   7887.462327  19620.502347    -23.732453
PC29  27001.279807   4555.773652  -5400.259967    450.318753
PC30  19823.828250  15221.897532  12392.096255    481.313080
PC32  -7928.846316  21660.358972 -15695.089927   -949.732748
PC33 -21909.106005   4003.367222  16802.070864   -968.340551
PC34 -20434.184988 -15006.611343 -11688.580262   -576.790451
PC35  18279.047569  -8319.545243 -19370.802530    -81.314625
PC36  16818.560524   5476.534731  21616.654679   -763.479451
PC37    -66.399321  26931.850624  -7324.641928   -866.876080
PC38  -7049.347920  33818.658227  24288.069393    177.071296
PC39 -17106.828181  19892.184511 -33043.801839     33.318312
PC40 -24566.580304  32369.084265  10929.354825    201.595448
PC41 -21316.703101  17989.233065    998.145457   -933.730876
PC42  -9715.861026 -12644.108533  22936.782177   -959.594423
PC43 -27023.976058  -5069.017203   4811.455807   -925.182699
PC44  -1439.777417 -16781.306085 -22262.888962    401.375776
PC45  11631.990352 -15315.608584  20224.760938    553.908426
PC46  12212.830989  22664.105139  10825.436738     74.438703
PC60   7323.273734  41490.556957   1668.636202     -0.770043
PE01  17978.219853  -6307.931150  22662.262453   -479.580390
PE02 -17984.445667   6494.238713 -22591.035408    248.409762
PE03 -29063.205308   4985.255261   2491.800993   -477.114979
PE04  20162.110098 -15615.139352  15030.425143   -861.705448
PE05 -21054.408840  -8766.126499  18865.351023   -247.552332
PE07    884.981535  17237.872299 -24045.569198   -588.034734
PE08 -19783.936048  15746.506068 -15383.218619   5933.877194
PE09  -1126.326620 -17059.246008  24163.286353   5523.750647
PE11  -9382.349712 -23863.611710 -14802.140754   5390.455499
PE12   9130.564203 -13684.679403 -24612.356401   4998.081475
PE13   9067.311683  23718.350538  15216.952308    421.755829
PE14  19056.656252 -16747.376385 -20233.011025  -1578.875408
PE15  -9042.577343  13649.347927  24662.289195    791.014893
PE18 -15015.172223  11386.335117  14033.900784  -1733.185745
PE19  29019.779837  -3322.515883  -4789.733434    383.450500
PE21  11879.578389  14406.092803  22975.422254   -689.274872
PE24   2182.025064 -28064.662758  -9123.779217  -1130.452023
PE25 -11744.974650 -14628.477665 -22881.029583   -547.454906
PE26  22051.306751  19330.033254  -4089.661162   1316.750749
PE27  -1346.251195  27816.444099  10051.867797   -125.599205
PE30 -14345.106188  24001.999086  -9727.127645   2600.957155
PE31  13698.062683 -24756.045612   8715.521711   -485.873614
PE33  21778.564973   4440.126175 -19550.041216   -464.663661
PE36 -21774.276611 -19800.070571   3141.837117   -265.634272
PG01 -18787.632232  -8868.390603  16467.525731    560.867753
PG02  13685.762882  22411.969523   4334.373001   -633.594847
PG03 -16415.650688   1168.705925  20721.430145   -297.649858
PG04 -26488.136451   -805.050243   2278.126553   -204.243037
PG05  10489.362955  12697.307171 -20970.956306    -55.183972
PG06   2956.546320  22001.348282  14597.917982     79.055584
PG07 -13602.999588   7015.285427 -21355.543880    249.435607
PG08 -22295.500371  -7086.050385 -12879.125598    -37.340002
PG09 -23737.939325   8179.089834  -8774.015116   -361.273459
PG10  11410.245714 -23809.402252    395.181991   -208.151708
PG12  16074.547637    752.901955  20854.289112   -100.744742
PG13  15664.745731  12991.712714 -17291.586980    188.811687
PG14 -12435.578189  23429.655188    546.602200     -3.554630
PG15  23153.055764   5281.581631 -12622.453712   -119.418433
PG16  -5505.704248 -16909.364446 -19824.992510   -394.534648
PG17 -13514.474939  12933.648701  19293.360230    508.134840
PG18  11989.760680  -9128.213443 -21880.048513    319.637679
PG19  -3891.265029  14395.357889  21695.457769     56.016992
PG20   3733.647593  22300.964999 -14169.317910    519.019287
PG21 -20497.274488 -14297.490865  10446.270738    143.913932
PG22 -14203.885314  -7140.878011  21459.321452   -507.519367
PG23  16445.445301 -17834.118350 -10750.713344     54.518639
PG24  20536.067157  11766.438385  12185.205872    239.610151
PG25  17836.384359 -10304.390586  16347.983751    212.150881
PG26   2486.184846 -24272.942961 -10197.716711    136.779064
PG27 -13555.424101 -12380.742959 -19507.892334   -196.138619
PG28  -8523.134492  24148.351658   7967.728940    496.740771
PG29  25503.878800  -4016.409787  -6420.936131   -415.226658
PG30  -5056.366971  17876.617673 -18825.216232   -475.195423
PG31  -3936.417701 -22798.738748  12513.528881   -141.004901
PG32   9206.017726 -14817.380124  20093.181183     -2.663440
PJ01 -35607.406830  21048.587644  -3612.473178    124.437888
PJ02 -22848.279226  31194.627057 -12255.127632     -2.675378
PJ03 -28352.936804  21992.288851  27166.907007     -2.406936
PJ07 -25361.775886  33685.927479    -54.972178      0.024209
PR01  12948.645225   4176.919543 -21583.830553     85.645999
PR02  22619.171744  -9451.191360  -6897.271003    494.097579
PR03  16965.340610 -15868.376294  10509.636577     43.374234
PR04   2053.554522 -13075.466171  21824.106953    105.868751
PR05 -14087.715591  -3163.190719  21039.761875     79.364581
PR06 -22414.493056  10655.227929   5934.365625     -5.155849
PR07 -16637.947149  15915.407831 -11000.919657    -41.074127
PR08  -1976.364278  13152.961927 -21721.941900    -61.063773
PR09 -10910.745718   5328.991268 -22401.599836     14.422670
PR10  -6027.611732  20655.188806 -13755.601912    -75.241869
PR11   2483.544594  25108.133754   3718.822452     49.007461
PR12   9381.066078  14081.404764  19128.082915    263.905016
PR13  10746.505868  -4424.331304  22698.707220    -60.986669
PR14   5746.543028 -21366.320463  12728.471230     69.058418
PR15  -2426.742918 -25026.194591  -4282.975217    101.328419
PR16 -10140.756780 -12564.647076 -19716.341269    -21.829484
PR17   7158.716218  -8004.891222 -23133.322040    460.481911
PR18  -9444.654085 -14947.542395 -18391.664315     91.238989
PR19 -20174.307989 -14822.855839  -4856.583185   -160.254351
PR20 -20326.941852  -4823.932257  14663.784991    -56.286832
PR21  -5812.174621   8716.833365  23254.719990   -241.054394
PR22  10173.561291  15112.995682  17796.592708   -134.562775
PR23  22389.607418  12098.303102  -1811.693405    -14.018156
PR24  20253.948274   3713.194549 -15057.579979     59.588739
EOF
